start=new Date('2022-05-07T00:00:00.000Z').valueOf();
sats=[{"REF_FRAME":"TEME","EPOCH":"2022-05-06T14:00:01.000224","TLE_LINE2":"2 51886  53.2176 187.5280 0005275 308.3945 128.7402 15.70089883  3710","SITE":"AFETR","ELEMENT_SET_NO":"999","FILE":"3432208","MEAN_ANOMALY":"128.7402","OBJECT_TYPE":"PAYLOAD","ECCENTRICITY":"0.00052750","GP_ID":"202864296","SEMIMAJOR_AXIS":"6736.777","MEAN_MOTION":"15.70089883","CENTER_NAME":"EARTH","INCLINATION":"53.2176","PERIOD":"91.714","EPHEMERIS_TYPE":"0","OBJECT_NAME":"STARLINK-3565","CLASSIFICATION_TYPE":"U","RCS_SIZE":"LARGE","LAUNCH_DATE":"2022-03-03","RA_OF_ASC_NODE":"187.5280","BSTAR":"-0.00645430000000","TLE_LINE1":"1 51886U 22022AL  22126.58334491 -.00730008  00000-0 -64543-2 0  9990","MEAN_MOTION_DDOT":"0.0000000000000","NORAD_CAT_ID":"51886","MEAN_MOTION_DOT":"-0.00730008","OBJECT_ID":"2022-022AL","TIME_SYSTEM":"UTC","APOAPSIS":"362.196","MEAN_ELEMENT_THEORY":"SGP4","PERIAPSIS":"355.088","ARG_OF_PERICENTER":"308.3945","DECAY_DATE":null,"COUNTRY_CODE":"US","REV_AT_EPOCH":"371"},{"OBJECT_NAME":"STARLINK-3551","RCS_SIZE":"LARGE","CLASSIFICATION_TYPE":"U","LAUNCH_DATE":"2022-03-03","RA_OF_ASC_NODE":"187.5295","BSTAR":"-0.00644930000000","INCLINATION":"53.2176","PERIOD":"91.713","EPHEMERIS_TYPE":"0","DECAY_DATE":null,"COUNTRY_CODE":"US","REV_AT_EPOCH":"371","TLE_LINE1":"1 51887U 22022AM  22126.58334491 -.00729795  00000-0 -64493-2 0  9996","MEAN_MOTION_DDOT":"0.0000000000000","MEAN_MOTION_DOT":"-0.00729795","OBJECT_ID":"2022-022AM","NORAD_CAT_ID":"51887","APOAPSIS":"361.818","TIME_SYSTEM":"UTC","MEAN_ELEMENT_THEORY":"SGP4","PERIAPSIS":"355.367","ARG_OF_PERICENTER":"304.4638","FILE":"3432208","REF_FRAME":"TEME","EPOCH":"2022-05-06T14:00:01.000224","TLE_LINE2":"2 51887  53.2176 187.5295 0004788 304.4638 135.3487 15.70107131  3715","ELEMENT_SET_NO":"999","SITE":"AFETR","ECCENTRICITY":"0.00047880","GP_ID":"202864495","SEMIMAJOR_AXIS":"6736.728","MEAN_MOTION":"15.70107131","CENTER_NAME":"EARTH","MEAN_ANOMALY":"135.3487","OBJECT_TYPE":"PAYLOAD"},{"MEAN_MOTION":"15.70098442","CENTER_NAME":"EARTH","ECCENTRICITY":"0.00049430","GP_ID":"202864582","SEMIMAJOR_AXIS":"6736.752","OBJECT_TYPE":"PAYLOAD","MEAN_ANOMALY":"131.6428","FILE":"3432208","REF_FRAME":"TEME","EPOCH":"2022-05-06T14:00:01.000224","TLE_LINE2":"2 51888  53.2176 187.5275 0004943 306.8310 131.6428 15.70098442  3718","ELEMENT_SET_NO":"999","SITE":"AFETR","REV_AT_EPOCH":"371","DECAY_DATE":null,"COUNTRY_CODE":"US","PERIAPSIS":"355.287","ARG_OF_PERICENTER":"306.8310","TLE_LINE1":"1 51888U 22022AN  22126.58334491 -.00729877  00000-0 -64519-2 0  9997","MEAN_MOTION_DDOT":"0.0000000000000","MEAN_MOTION_DOT":"-0.00729877","NORAD_CAT_ID":"51888","OBJECT_ID":"2022-022AN","APOAPSIS":"361.947","TIME_SYSTEM":"UTC","MEAN_ELEMENT_THEORY":"SGP4","LAUNCH_DATE":"2022-03-03","RA_OF_ASC_NODE":"187.5275","BSTAR":"-0.00645190000000","OBJECT_NAME":"STARLINK-3536","RCS_SIZE":"LARGE","CLASSIFICATION_TYPE":"U","INCLINATION":"53.2176","PERIOD":"91.714","EPHEMERIS_TYPE":"0"},{"CLASSIFICATION_TYPE":"U","RCS_SIZE":"LARGE","OBJECT_NAME":"STARLINK-3547","BSTAR":"-0.00644720000000","RA_OF_ASC_NODE":"187.5322","LAUNCH_DATE":"2022-03-03","EPHEMERIS_TYPE":"0","PERIOD":"91.713","INCLINATION":"53.2176","COUNTRY_CODE":"US","DECAY_DATE":null,"REV_AT_EPOCH":"371","MEAN_ELEMENT_THEORY":"SGP4","APOAPSIS":"361.946","TIME_SYSTEM":"UTC","MEAN_MOTION_DOT":"-0.00730037","MEAN_MOTION_DDOT":"0.0000000000000","NORAD_CAT_ID":"51889","OBJECT_ID":"2022-022AP","TLE_LINE1":"1 51889U 22022AP  22126.58334491 -.00730037  00000-0 -64472-2 0  9996","ARG_OF_PERICENTER":"305.2574","PERIAPSIS":"355.164","FILE":"3432208","ELEMENT_SET_NO":"999","SITE":"AFETR","EPOCH":"2022-05-06T14:00:01.000224","TLE_LINE2":"2 51889  53.2176 187.5322 0005034 305.2574 136.5628 15.70120306  3710","REF_FRAME":"TEME","SEMIMAJOR_AXIS":"6736.690","GP_ID":"202864727","ECCENTRICITY":"0.00050340","CENTER_NAME":"EARTH","MEAN_MOTION":"15.70120306","MEAN_ANOMALY":"136.5628","OBJECT_TYPE":"PAYLOAD"},{"CLASSIFICATION_TYPE":"U","RCS_SIZE":"LARGE","OBJECT_NAME":"STARLINK-3519","BSTAR":"-0.00644660000000","RA_OF_ASC_NODE":"187.5302","LAUNCH_DATE":"2022-03-03","EPHEMERIS_TYPE":"0","PERIOD":"91.713","INCLINATION":"53.2176","COUNTRY_CODE":"US","DECAY_DATE":null,"REV_AT_EPOCH":"371","MEAN_ELEMENT_THEORY":"SGP4","APOAPSIS":"361.302","TIME_SYSTEM":"UTC","MEAN_MOTION_DOT":"-0.00729378","MEAN_MOTION_DDOT":"0.0000000000000","NORAD_CAT_ID":"51890","OBJECT_ID":"2022-022AQ","TLE_LINE1":"1 51890U 22022AQ  22126.58334491 -.00729378  00000-0 -64466-2 0  9997","ARG_OF_PERICENTER":"306.4548","PERIAPSIS":"355.859","FILE":"3432208","SITE":"AFETR","ELEMENT_SET_NO":"999","TLE_LINE2":"2 51890  53.2176 187.5302 0004040 306.4548 134.0269 15.70111399  3716","EPOCH":"2022-05-06T14:00:01.000224","REF_FRAME":"TEME","SEMIMAJOR_AXIS":"6736.715","GP_ID":"202864642","ECCENTRICITY":"0.00040400","CENTER_NAME":"EARTH","MEAN_MOTION":"15.70111399","MEAN_ANOMALY":"134.0269","OBJECT_TYPE":"PAYLOAD"},{"OBJECT_NAME":"STARLINK-3549","RCS_SIZE":"LARGE","CLASSIFICATION_TYPE":"U","RA_OF_ASC_NODE":"187.5331","LAUNCH_DATE":"2022-03-03","BSTAR":"-0.00644520000000","INCLINATION":"53.2176","EPHEMERIS_TYPE":"0","PERIOD":"91.712","COUNTRY_CODE":"US","DECAY_DATE":null,"REV_AT_EPOCH":"371","MEAN_MOTION_DOT":"-0.00730014","MEAN_MOTION_DDOT":"0.0000000000000","NORAD_CAT_ID":"51891","OBJECT_ID":"2022-022AR","TLE_LINE1":"1 51891U 22022AR  22126.58334491 -.00730014  00000-0 -64452-2 0  9992","MEAN_ELEMENT_THEORY":"SGP4","APOAPSIS":"362.048","TIME_SYSTEM":"UTC","PERIAPSIS":"355.037","ARG_OF_PERICENTER":"303.3636","FILE":"3432208","REF_FRAME":"TEME","SITE":"AFETR","ELEMENT_SET_NO":"999","EPOCH":"2022-05-06T14:00:01.000224","TLE_LINE2":"2 51891  53.2176 187.5331 0005203 303.3636 139.1258 15.70124647  3719","GP_ID":"202864149","ECCENTRICITY":"0.00052030","SEMIMAJOR_AXIS":"6736.677","CENTER_NAME":"EARTH","MEAN_MOTION":"15.70124647","MEAN_ANOMALY":"139.1258","OBJECT_TYPE":"PAYLOAD"},{"CENTER_NAME":"EARTH","MEAN_MOTION":"15.70115773","SEMIMAJOR_AXIS":"6736.703","GP_ID":"202864237","ECCENTRICITY":"0.00041630","OBJECT_TYPE":"PAYLOAD","MEAN_ANOMALY":"137.5784","FILE":"3432208","SITE":"AFETR","ELEMENT_SET_NO":"999","EPOCH":"2022-05-06T14:00:01.000224","TLE_LINE2":"2 51892  53.2176 187.5311 0004163 303.5726 137.5784 15.70115773  3710","REF_FRAME":"TEME","REV_AT_EPOCH":"371","COUNTRY_CODE":"US","DECAY_DATE":null,"ARG_OF_PERICENTER":"303.5726","PERIAPSIS":"355.763","MEAN_ELEMENT_THEORY":"SGP4","APOAPSIS":"361.372","TIME_SYSTEM":"UTC","MEAN_MOTION_DDOT":"0.0000000000000","OBJECT_ID":"2022-022AS","MEAN_MOTION_DOT":"-0.00729458","NORAD_CAT_ID":"51892","TLE_LINE1":"1 51892U 22022AS  22126.58334491 -.00729458  00000-0 -64458-2 0  9999","BSTAR":"-0.00644580000000","RA_OF_ASC_NODE":"187.5311","LAUNCH_DATE":"2022-03-03","RCS_SIZE":"LARGE","CLASSIFICATION_TYPE":"U","OBJECT_NAME":"STARLINK-3587","EPHEMERIS_TYPE":"0","PERIOD":"91.713","INCLINATION":"53.2176"},{"INCLINATION":"53.2176","EPHEMERIS_TYPE":"0","PERIOD":"91.712","OBJECT_NAME":"STARLINK-3579","CLASSIFICATION_TYPE":"U","RCS_SIZE":"LARGE","RA_OF_ASC_NODE":"187.5348","LAUNCH_DATE":"2022-03-03","BSTAR":"-0.00644350000000","OBJECT_ID":"2022-022AT","MEAN_MOTION_DDOT":"0.0000000000000","MEAN_MOTION_DOT":"-0.00729757","NORAD_CAT_ID":"51893","TLE_LINE1":"1 51893U 22022AT  22126.58334491 -.00729757  00000-0 -64435-2 0  9997","MEAN_ELEMENT_THEORY":"SGP4","APOAPSIS":"361.410","TIME_SYSTEM":"UTC","PERIAPSIS":"355.626","ARG_OF_PERICENTER":"308.1514","COUNTRY_CODE":"US","DECAY_DATE":null,"REV_AT_EPOCH":"371","REF_FRAME":"TEME","ELEMENT_SET_NO":"999","SITE":"AFETR","TLE_LINE2":"2 51893  53.2176 187.5348 0004293 308.1514 135.6762 15.70133347  3713","EPOCH":"2022-05-06T14:00:01.000224","FILE":"3432208","MEAN_ANOMALY":"135.6762","OBJECT_TYPE":"PAYLOAD","GP_ID":"202864381","ECCENTRICITY":"0.00042930","SEMIMAJOR_AXIS":"6736.653","CENTER_NAME":"EARTH","MEAN_MOTION":"15.70133347"},{"MEAN_MOTION_DDOT":"0.0000000000000","MEAN_MOTION_DOT":"-0.00729903","OBJECT_ID":"2022-022AU","NORAD_CAT_ID":"51894","TLE_LINE1":"1 51894U 22022AU  22126.58334491 -.00729903  00000-0 -64444-2 0  9991","MEAN_ELEMENT_THEORY":"SGP4","TIME_SYSTEM":"UTC","APOAPSIS":"361.758","PERIAPSIS":"355.302","ARG_OF_PERICENTER":"301.4257","COUNTRY_CODE":"US","DECAY_DATE":null,"REV_AT_EPOCH":"371","INCLINATION":"53.2176","EPHEMERIS_TYPE":"0","PERIOD":"91.712","OBJECT_NAME":"STARLINK-3595","RCS_SIZE":"LARGE","CLASSIFICATION_TYPE":"U","RA_OF_ASC_NODE":"187.5337","LAUNCH_DATE":"2022-03-03","BSTAR":"-0.00644440000000","MEAN_ANOMALY":"141.7328","OBJECT_TYPE":"PAYLOAD","GP_ID":"202864297","ECCENTRICITY":"0.00047920","SEMIMAJOR_AXIS":"6736.665","CENTER_NAME":"EARTH","MEAN_MOTION":"15.70129028","REF_FRAME":"TEME","ELEMENT_SET_NO":"999","SITE":"AFETR","EPOCH":"2022-05-06T14:00:01.000224","TLE_LINE2":"2 51894  53.2176 187.5337 0004792 301.4257 141.7328 15.70129028  3713","FILE":"3432208"},{"OBJECT_NAME":"STARLINK-3594","CLASSIFICATION_TYPE":"U","RCS_SIZE":"LARGE","RA_OF_ASC_NODE":"187.5343","LAUNCH_DATE":"2022-03-03","BSTAR":"-0.00644080000000","INCLINATION":"53.2176","EPHEMERIS_TYPE":"0","PERIOD":"91.711","COUNTRY_CODE":"US","DECAY_DATE":null,"REV_AT_EPOCH":"371","MEAN_MOTION_DDOT":"0.0000000000000","OBJECT_ID":"2022-022AV","MEAN_MOTION_DOT":"-0.00729525","NORAD_CAT_ID":"51895","TLE_LINE1":"1 51895U 22022AV  22126.58334491 -.00729525  00000-0 -64408-2 0  9992","MEAN_ELEMENT_THEORY":"SGP4","APOAPSIS":"360.991","TIME_SYSTEM":"UTC","PERIAPSIS":"355.995","ARG_OF_PERICENTER":"303.6556","FILE":"3432208","REF_FRAME":"TEME","ELEMENT_SET_NO":"999","SITE":"AFETR","TLE_LINE2":"2 51895  53.2176 187.5343 0003708 303.6556 141.5102 15.70141873  3713","EPOCH":"2022-05-06T14:00:01.000224","GP_ID":"202864496","ECCENTRICITY":"0.00037080","SEMIMAJOR_AXIS":"6736.628","CENTER_NAME":"EARTH","MEAN_MOTION":"15.70141873","MEAN_ANOMALY":"141.5102","OBJECT_TYPE":"PAYLOAD"}];
